[{"OBJECT_NAME":"ASNARO-2","OBJECT_ID":"2018-007A","EPOCH":"2026-03-08T18:06:21.285792","MEAN_MOTION":15.22434719,"ECCENTRICITY":0.00020856,"INCLINATION":97.403,"RA_OF_ASC_NODE":76.2222,"ARG_OF_PERICENTER":88.5161,"MEAN_ANOMALY":271.6314,"EPHEMERIS_TYPE":0,"CLASSIFICATION_TYPE":"U","NORAD_CAT_ID":43152,"ELEMENT_SET_NO":999,"REV_AT_EPOCH":45213,"BSTAR":0.00060724701,"MEAN_MOTION_DOT":0.00013989,"MEAN_MOTION_DDOT":0},{"OBJECT_NAME":"STARLINK-30074","OBJECT_ID":"2023-113P","EPOCH":"2026-03-09T22:00:01.999584","MEAN_MOTION":15.22038935,"ECCENTRICITY":0.00020108,"INCLINATION":42.9996,"RA_OF_ASC_NODE":14.6701,"ARG_OF_PERICENTER":257.9675,"MEAN_ANOMALY":10.6717,"EPHEMERIS_TYPE":0,"CLASSIFICATION_TYPE":"U","NORAD_CAT_ID":57508,"ELEMENT_SET_NO":999,"REV_AT_EPOCH":578,"BSTAR":0.037058477,"MEAN_MOTION_DOT":0.0093455,"MEAN_MOTION_DDOT":0}]
